STARLINK-30318          
1 57711U 23129P   26068.14970459 -.00006203  00000+0 -22186-3 0  9993
2 57711  43.0042 120.6342 0002038 287.9745  72.0885 15.26722511140466
TRANSPORTER-13 OBJECT AH
1 63241U 25052AH  26068.64880921  .00014108  00000+0  55931-3 0  9999
2 63241  97.3962 323.1443 0008070 138.7508 221.4341 15.25468797 54753
